GLOBALSTAR M024         
1 25883U 99043A   25235.26384353 -.00000064  00000+0  13687-4 0  9991
2 25883  51.9973 229.2747 0001320 218.1858 154.8059 11.10164029122310
GLOBALSTAR M027         
1 25884U 99043B   25235.20377145  .00000003  00000+0  25136-2 0  9999
2 25884  52.0231 309.2952 0021835 100.2983 260.0273 11.04372389148645
GLOBALSTAR M054         
1 25885U 99043C   25235.27595365 -.00000150  00000+0 -20201-2 0  9996
2 25885  52.0142  65.1693 0004622 294.3812 236.6223 11.39220284126697
GLOBALSTAR M053         
1 25886U 99043D   25232.70109772 -.00000077  00000+0 -23203-3 0  9999
2 25886  52.0015  22.0125 0003337 177.9574 278.5315 11.27666189126728
GLOBALSTAR M058         
1 25907U 99049A   25235.24147950 -.00000029  00000+0  74379-3 0  9997
2 25907  51.9942 290.1261 0002224  48.6945 311.4081 11.93201795549545
GLOBALSTAR M050         
1 25908U 99049B   25235.27335623 -.00000142  00000+0 -61207-3 0  9990
2 25908  51.9990 292.7043 0009442 164.4711 284.5781 12.07455811156291
GLOBALSTAR M033         
1 25909U 99049C   25235.18808530 -.00000017  00000+0  72191-3 0  9997
2 25909  51.9901 160.1380 0014283  41.0152 319.1767 12.20297216543921
GLOBALSTAR M055         
1 25910U 99049D   25235.24834224 -.00000087  00000+0  60899-4 0  9995
2 25910  52.0008 167.4515 0006765 274.6922  85.3157 12.29431299176532
